[{"OBJECT_NAME":"VSP RF B1","OBJECT_ID":"2024-043AR","EPOCH":"2026-03-09T22:40:29.479296","MEAN_MOTION":15.26694159,"ECCENTRICITY":0.00102608,"INCLINATION":97.5446,"RA_OF_ASC_NODE":204.7052,"ARG_OF_PERICENTER":220.7435,"MEAN_ANOMALY":139.3037,"EPHEMERIS_TYPE":0,"CLASSIFICATION_TYPE":"U","NORAD_CAT_ID":59137,"ELEMENT_SET_NO":999,"REV_AT_EPOCH":11187,"BSTAR":0.00024406819,"MEAN_MOTION_DOT":6.341e-5,"MEAN_MOTION_DDOT":0},{"OBJECT_NAME":"STARLINK-32008","OBJECT_ID":"2024-111N","EPOCH":"2026-03-09T06:56:38.058432","MEAN_MOTION":15.30188477,"ECCENTRICITY":0.0001283,"INCLINATION":53.1604,"RA_OF_ASC_NODE":77.3761,"ARG_OF_PERICENTER":89.7374,"MEAN_ANOMALY":270.3774,"EPHEMERIS_TYPE":0,"CLASSIFICATION_TYPE":"U","NORAD_CAT_ID":60028,"ELEMENT_SET_NO":999,"REV_AT_EPOCH":9897,"BSTAR":-2.861404e-6,"MEAN_MOTION_DOT":-4.44e-6,"MEAN_MOTION_DDOT":0}]
